COSMOS 2251 DEB         
1 34005U 93036GQ  17345.94455840  .00000053  00000-0  26029-4 0  9993
2 34005  74.0447 201.3626 0021500 322.9869 146.4540 14.38423281463392
